{
  "type": "FeatureCollection",
  "features": [
    {
      "type": "Feature",
      "properties": {
        "norad_id": 34316,
        "name": "COSMOS 2251 DEB",
        "group": "cosmos-2251-debris",
        "lat": -31.324339003854444,
        "lon": 140.92641529293755,
        "alt_km": 603.0364974778122,
        "timestamp": "2025-12-25T16:53:15.057752+00:00",
        "meta_object_name": "COSMOS 2251 DEB",
        "meta_object_id": "1993-036NN",
        "meta_epoch": "2025-12-24T07:45:26.608896",
        "meta_mean_motion": 14.92188332,
        "meta_eccentricity": 0.00091495,
        "meta_inclination": 74.066,
        "meta_ra_of_asc_node": 313.6788,
        "meta_arg_of_pericenter": 34.8503,
        "meta_mean_anomaly": 325.3277,
        "meta_ephemeris_type": 0,
        "meta_classification_type": "U",
        "meta_norad_cat_id": 34316,
        "meta_element_set_no": 999,
        "meta_rev_at_epoch": 89382,
        "meta_bstar": 0.0019552945,
        "meta_mean_motion_dot": 0.00019955,
        "meta_mean_motion_ddot": 0,
        "tle_line1": "1 34316U 93036NN  25358.32322464  .00019955  00000+0  19553-2 0  9990",
        "tle_line2": "2 34316  74.0660 313.6788 0009149  34.8503 325.3277 14.92188332893824"
      },
      "geometry": {
        "type": "Point",
        "coordinates": [
          140.92641529293755,
          -31.324339003854444
        ]
      }
    },
    {
      "type": "Feature",
      "properties": {
        "norad_id": 34317,
        "name": "COSMOS 2251 DEB",
        "group": "cosmos-2251-debris",
        "lat": 16.137179459231646,
        "lon": -170.3698650562256,
        "alt_km": 1253.34952544314,
        "timestamp": "2025-12-25T16:53:15.057763+00:00",
        "meta_object_name": "COSMOS 2251 DEB",
        "meta_object_id": "1993-036NP",
        "meta_epoch": "2025-12-24T19:53:47.023008",
        "meta_mean_motion": 13.65137258,
        "meta_eccentricity": 0.03369655,
        "meta_inclination": 73.9242,
        "meta_ra_of_asc_node": 15.8553,
        "meta_arg_of_pericenter": 2.7883,
        "meta_mean_anomaly": 182.3062,
        "meta_ephemeris_type": 0,
        "meta_classification_type": "U",
        "meta_norad_cat_id": 34317,
        "meta_element_set_no": 999,
        "meta_rev_at_epoch": 83784,
        "meta_bstar": 0.00062515685,
        "meta_mean_motion_dot": 7.24e-06,
        "meta_mean_motion_ddot": 0,
        "tle_line1": "1 34317U 93036NP  25358.82901647  .00000724  00000+0  62516-3 0  9994",
        "tle_line2": "2 34317  73.9242  15.8553 0336965   2.7883 182.3062 13.65137258837847"
      },
      "geometry": {
        "type": "Point",
        "coordinates": [
          -170.3698650562256,
          16.137179459231646
        ]
      }
    },
    {
      "type": "Feature",
      "properties": {
        "norad_id": 34321,
        "name": "COSMOS 2251 DEB",
        "group": "cosmos-2251-debris",
        "lat": -25.16403012775205,
        "lon": -40.26245228910579,
        "alt_km": 723.9048458099096,
        "timestamp": "2025-12-25T16:53:15.057773+00:00",
        "meta_object_name": "COSMOS 2251 DEB",
        "meta_object_id": "1993-036NT",
        "meta_epoch": "2025-12-24T17:17:26.512800",
        "meta_mean_motion": 14.50105866,
        "meta_eccentricity": 0.00160579,
        "meta_inclination": 74.0286,
        "meta_ra_of_asc_node": 133.8518,
        "meta_arg_of_pericenter": 262.7586,
        "meta_mean_anomaly": 212.9324,
        "meta_ephemeris_type": 0,
        "meta_classification_type": "U",
        "meta_norad_cat_id": 34321,
        "meta_element_set_no": 999,
        "meta_rev_at_epoch": 88660,
        "meta_bstar": 0.00063165502,
        "meta_mean_motion_dot": 2.429e-05,
        "meta_mean_motion_ddot": 0,
        "tle_line1": "1 34321U 93036NT  25358.72044575  .00002429  00000+0  63166-3 0  9992",
        "tle_line2": "2 34321  74.0286 133.8518 0016057 262.7586 212.9324 14.50105866886603"
      },
      "geometry": {
        "type": "Point",
        "coordinates": [
          -40.26245228910579,
          -25.16403012775205
        ]
      }
    },
    {
      "type": "Feature",
      "properties": {
        "norad_id": 34323,
        "name": "COSMOS 2251 DEB",
        "group": "cosmos-2251-debris",
        "lat": -67.1258612092541,
        "lon": 54.65121968500147,
        "alt_km": 686.780617301657,
        "timestamp": "2025-12-25T16:53:15.057784+00:00",
        "meta_object_name": "COSMOS 2251 DEB",
        "meta_object_id": "1993-036NV",
        "meta_epoch": "2025-12-24T07:10:25.806720",
        "meta_mean_motion": 14.74770748,
        "meta_eccentricity": 0.00574243,
        "meta_inclination": 73.9537,
        "meta_ra_of_asc_node": 100.4246,
        "meta_arg_of_pericenter": 141.5564,
        "meta_mean_anomaly": 249.6213,
        "meta_ephemeris_type": 0,
        "meta_classification_type": "U",
        "meta_norad_cat_id": 34323,
        "meta_element_set_no": 999,
        "meta_rev_at_epoch": 88610,
        "meta_bstar": 0.0024090346,
        "meta_mean_motion_dot": 0.00016563,
        "meta_mean_motion_ddot": 0,
        "tle_line1": "1 34323U 93036NV  25358.29890980  .00016563  00000+0  24090-2 0  9991",
        "tle_line2": "2 34323  73.9537 100.4246 0057424 141.5564 249.6213 14.74770748886105"
      },
      "geometry": {
        "type": "Point",
        "coordinates": [
          54.65121968500147,
          -67.1258612092541
        ]
      }
    },
    {
      "type": "Feature",
      "properties": {
        "norad_id": 34325,
        "name": "COSMOS 2251 DEB",
        "group": "cosmos-2251-debris",
        "lat": 64.54048225807179,
        "lon": -47.4646454662279,
        "alt_km": 832.8687240291229,
        "timestamp": "2025-12-25T16:53:15.057794+00:00",
        "meta_object_name": "COSMOS 2251 DEB",
        "meta_object_id": "1993-036NX",
        "meta_epoch": "2025-12-24T22:08:49.206336",
        "meta_mean_motion": 14.04550209,
        "meta_eccentricity": 0.019139,
        "meta_inclination": 73.8708,
        "meta_ra_of_asc_node": 171.34,
        "meta_arg_of_pericenter": 186.398,
        "meta_mean_anomaly": 298.853,
        "meta_ephemeris_type": 0,
        "meta_classification_type": "U",
        "meta_norad_cat_id": 34325,
        "meta_element_set_no": 999,
        "meta_rev_at_epoch": 85686,
        "meta_bstar": 0.0020926,
        "meta_mean_motion_dot": 3.912e-05,
        "meta_mean_motion_ddot": 0,
        "tle_line1": "1 34325U 93036NX  25358.92279174  .00003912  00000+0  20926-2 0  9997",
        "tle_line2": "2 34325  73.8708 171.3400 0191390 186.3980 298.8530 14.04550209856864"
      },
      "geometry": {
        "type": "Point",
        "coordinates": [
          -47.4646454662279,
          64.54048225807179
        ]
      }
    },
    {
      "type": "Feature",
      "properties": {
        "norad_id": 34327,
        "name": "COSMOS 2251 DEB",
        "group": "cosmos-2251-debris",
        "lat": -70.5542036842939,
        "lon": 91.51415339731116,
        "alt_km": 588.1026776559256,
        "timestamp": "2025-12-25T16:53:15.057804+00:00",
        "meta_object_name": "COSMOS 2251 DEB",
        "meta_object_id": "1993-036NZ",
        "meta_epoch": "2025-12-24T20:49:00.642720",
        "meta_mean_motion": 14.89448683,
        "meta_eccentricity": 0.00336831,
        "meta_inclination": 73.9947,
        "meta_ra_of_asc_node": 147.5816,
        "meta_arg_of_pericenter": 321.6376,
        "meta_mean_anomaly": 157.5225,
        "meta_ephemeris_type": 0,
        "meta_classification_type": "U",
        "meta_norad_cat_id": 34327,
        "meta_element_set_no": 999,
        "meta_rev_at_epoch": 89688,
        "meta_bstar": 0.0014167723,
        "meta_mean_motion_dot": 0.00013612,
        "meta_mean_motion_ddot": 0,
        "tle_line1": "1 34327U 93036NZ  25358.86736855  .00013612  00000+0  14168-2 0  9995",
        "tle_line2": "2 34327  73.9947 147.5816 0033683 321.6376 157.5225 14.89448683896884"
      },
      "geometry": {
        "type": "Point",
        "coordinates": [
          91.51415339731116,
          -70.5542036842939
        ]
      }
    },
    {
      "type": "Feature",
      "properties": {
        "norad_id": 34340,
        "name": "COSMOS 2251 DEB",
        "group": "cosmos-2251-debris",
        "lat": -1.671118880738134,
        "lon": -74.14295858453241,
        "alt_km": 790.6888207564389,
        "timestamp": "2025-12-25T16:53:15.057814+00:00",
        "meta_object_name": "COSMOS 2251 DEB",
        "meta_object_id": "1993-036PN",
        "meta_epoch": "2025-12-25T05:26:20.132160",
        "meta_mean_motion": 13.79624486,
        "meta_eccentricity": 0.02842316,
        "meta_inclination": 74.0787,
        "meta_ra_of_asc_node": 287.1307,
        "meta_arg_of_pericenter": 32.023,
        "meta_mean_anomaly": 119.7753,
        "meta_ephemeris_type": 0,
        "meta_classification_type": "U",
        "meta_norad_cat_id": 34340,
        "meta_element_set_no": 999,
        "meta_rev_at_epoch": 84440,
        "meta_bstar": 0.0017349406,
        "meta_mean_motion_dot": 2.403e-05,
        "meta_mean_motion_ddot": 0,
        "tle_line1": "1 34340U 93036PN  25359.22662190  .00002403  00000+0  17349-2 0  9991",
        "tle_line2": "2 34340  74.0787 287.1307 0284231  32.0230 119.7753 13.79624486844400"
      },
      "geometry": {
        "type": "Point",
        "coordinates": [
          -74.14295858453241,
          -1.671118880738134
        ]
      }
    }
  ]
}